{
  "type": "FeatureCollection",
  "features": [
    {
      "type": "Feature",
      "properties": {
        "norad_id": 22490,
        "name": "SCD 1",
        "group": "resource",
        "lat": 8.016539746228839,
        "lon": 45.03384755357754,
        "alt_km": 756.2738344940399,
        "timestamp": "2025-12-18T13:51:49.316922+00:00",
        "meta_object_name": "SCD 1",
        "meta_object_id": "1993-009B",
        "meta_epoch": "2025-12-18T03:55:17.486112",
        "meta_mean_motion": 14.46002807,
        "meta_eccentricity": 0.00420291,
        "meta_inclination": 24.9687,
        "meta_ra_of_asc_node": 245.2067,
        "meta_arg_of_pericenter": 22.475,
        "meta_mean_anomaly": 136.9822,
        "meta_ephemeris_type": 0,
        "meta_classification_type": "U",
        "meta_norad_cat_id": 22490,
        "meta_element_set_no": 999,
        "meta_rev_at_epoch": 73488,
        "meta_bstar": 7.3799265e-05,
        "meta_mean_motion_dot": 4.55e-06,
        "meta_mean_motion_ddot": 0,
        "tle_line1": "1 22490U 93009B   25352.16339683  .00000455  00000+0  73799-4 0  9996",
        "tle_line2": "2 22490  24.9687 245.2067 0042029  22.4750 136.9822 14.46002807734881"
      },
      "geometry": {
        "type": "Point",
        "coordinates": [
          45.03384755357754,
          8.016539746228839
        ]
      }
    },
    {
      "type": "Feature",
      "properties": {
        "norad_id": 25397,
        "name": "TECHSAT 1B (GO-32)",
        "group": "resource",
        "lat": -27.47519442056504,
        "lon": 151.20121889698504,
        "alt_km": 817.5808242585072,
        "timestamp": "2025-12-18T13:51:49.316973+00:00",
        "meta_object_name": "TECHSAT 1B (GO-32)",
        "meta_object_id": "1998-043D",
        "meta_epoch": "2025-12-18T04:27:43.431840",
        "meta_mean_motion": 14.24378625,
        "meta_eccentricity": 0.00019032,
        "meta_inclination": 98.9924,
        "meta_ra_of_asc_node": 335.5238,
        "meta_arg_of_pericenter": 48.8485,
        "meta_mean_anomaly": 311.2857,
        "meta_ephemeris_type": 0,
        "meta_classification_type": "U",
        "meta_norad_cat_id": 25397,
        "meta_element_set_no": 999,
        "meta_rev_at_epoch": 42556,
        "meta_bstar": 5.059685e-05,
        "meta_mean_motion_dot": 7e-07,
        "meta_mean_motion_ddot": 0,
        "tle_line1": "1 25397U 98043D   25352.18591935  .00000070  00000+0  50597-4 0  9994",
        "tle_line2": "2 25397  98.9924 335.5238 0001903  48.8485 311.2857 14.24378625425569"
      },
      "geometry": {
        "type": "Point",
        "coordinates": [
          151.20121889698504,
          -27.47519442056504
        ]
      }
    },
    {
      "type": "Feature",
      "properties": {
        "norad_id": 25504,
        "name": "SCD 2",
        "group": "resource",
        "lat": -0.11363522714916582,
        "lon": -73.85491287308622,
        "alt_km": 750.2258201314899,
        "timestamp": "2025-12-18T13:51:49.316991+00:00",
        "meta_object_name": "SCD 2",
        "meta_object_id": "1998-060A",
        "meta_epoch": "2025-12-17T15:35:50.466624",
        "meta_mean_motion": 14.45426055,
        "meta_eccentricity": 0.00168517,
        "meta_inclination": 24.9942,
        "meta_ra_of_asc_node": 111.6188,
        "meta_arg_of_pericenter": 5.6852,
        "meta_mean_anomaly": 17.0271,
        "meta_ephemeris_type": 0,
        "meta_classification_type": "U",
        "meta_norad_cat_id": 25504,
        "meta_element_set_no": 999,
        "meta_rev_at_epoch": 43403,
        "meta_bstar": 5.8702746e-05,
        "meta_mean_motion_dot": 3.92e-06,
        "meta_mean_motion_ddot": 0,
        "tle_line1": "1 25504U 98060A   25351.64988966  .00000392  00000+0  58703-4 0  9991",
        "tle_line2": "2 25504  24.9942 111.6188 0016851   5.6852  17.0271 14.45426055434039"
      },
      "geometry": {
        "type": "Point",
        "coordinates": [
          -73.85491287308622,
          -0.11363522714916582
        ]
      }
    },
    {
      "type": "Feature",
      "properties": {
        "norad_id": 25757,
        "name": "DLR-TUBSAT",
        "group": "resource",
        "lat": -65.28540314916486,
        "lon": -3.398710287968342,
        "alt_km": 729.9503941484536,
        "timestamp": "2025-12-18T13:51:49.317006+00:00",
        "meta_object_name": "DLR-TUBSAT",
        "meta_object_id": "1999-029B",
        "meta_epoch": "2025-12-17T13:22:10.787520",
        "meta_mean_motion": 14.52359578,
        "meta_eccentricity": 0.00141996,
        "meta_inclination": 98.6566,
        "meta_ra_of_asc_node": 336.2196,
        "meta_arg_of_pericenter": 177.8976,
        "meta_mean_anomaly": 182.2281,
        "meta_ephemeris_type": 0,
        "meta_classification_type": "U",
        "meta_norad_cat_id": 25757,
        "meta_element_set_no": 999,
        "meta_rev_at_epoch": 40688,
        "meta_bstar": 3.7650132e-05,
        "meta_mean_motion_dot": 1.05e-06,
        "meta_mean_motion_ddot": 0,
        "tle_line1": "1 25757U 99029B   25351.55706930  .00000105  00000+0  37650-4 0  9996",
        "tle_line2": "2 25757  98.6566 336.2196 0014199 177.8976 182.2281 14.52359578406886"
      },
      "geometry": {
        "type": "Point",
        "coordinates": [
          -3.398710287968342,
          -65.28540314916486
        ]
      }
    },
    {
      "type": "Feature",
      "properties": {
        "norad_id": 25994,
        "name": "TERRA",
        "group": "resource",
        "lat": 4.419665205707248,
        "lon": -135.33152484107242,
        "alt_km": 692.761444387751,
        "timestamp": "2025-12-18T13:51:49.317019+00:00",
        "meta_object_name": "TERRA",
        "meta_object_id": "1999-068A",
        "meta_epoch": "2025-12-18T06:46:55.332768",
        "meta_mean_motion": 14.60908205,
        "meta_eccentricity": 0.00035679,
        "meta_inclination": 97.9742,
        "meta_ra_of_asc_node": 43.7635,
        "meta_arg_of_pericenter": 83.5726,
        "meta_mean_anomaly": 340.8829,
        "meta_ephemeris_type": 0,
        "meta_classification_type": "U",
        "meta_norad_cat_id": 25994,
        "meta_element_set_no": 999,
        "meta_rev_at_epoch": 38319,
        "meta_bstar": 9.2200134e-05,
        "meta_mean_motion_dot": 4.07e-06,
        "meta_mean_motion_ddot": 0,
        "tle_line1": "1 25994U 99068A   25352.28258487  .00000407  00000+0  92200-4 0  9999",
        "tle_line2": "2 25994  97.9742  43.7635 0003567  83.5726 340.8829 14.60908205383192"
      },
      "geometry": {
        "type": "Point",
        "coordinates": [
          -135.33152484107242,
          4.419665205707248
        ]
      }
    },
    {
      "type": "Feature",
      "properties": {
        "norad_id": 27004,
        "name": "MAROC-TUBSAT",
        "group": "resource",
        "lat": 60.74108716733076,
        "lon": 143.17214183342944,
        "alt_km": 1006.7884144666577,
        "timestamp": "2025-12-18T13:51:49.317032+00:00",
        "meta_object_name": "MAROC-TUBSAT",
        "meta_object_id": "2001-056D",
        "meta_epoch": "2025-12-18T01:50:52.457856",
        "meta_mean_motion": 13.70253191,
        "meta_eccentricity": 0.00191417,
        "meta_inclination": 99.7913,
        "meta_ra_of_asc_node": 160.6154,
        "meta_arg_of_pericenter": 245.9193,
        "meta_mean_anomaly": 227.9929,
        "meta_ephemeris_type": 0,
        "meta_classification_type": "U",
        "meta_norad_cat_id": 27004,
        "meta_element_set_no": 999,
        "meta_rev_at_epoch": 20138,
        "meta_bstar": 2.5798314e-05,
        "meta_mean_motion_dot": -2.4e-07,
        "meta_mean_motion_ddot": 0,
        "tle_line1": "1 27004U 01056D   25352.07699604 -.00000024  00000+0  25798-4 0  9994",
        "tle_line2": "2 27004  99.7913 160.6154 0019141 245.9193 227.9929 13.70253191201381"
      },
      "geometry": {
        "type": "Point",
        "coordinates": [
          143.17214183342944,
          60.74108716733076
        ]
      }
    },
    {
      "type": "Feature",
      "properties": {
        "norad_id": 27424,
        "name": "AQUA",
        "group": "resource",
        "lat": 68.12918890196278,
        "lon": -68.05965971522537,
        "alt_km": 679.9783258527559,
        "timestamp": "2025-12-18T13:51:49.317044+00:00",
        "meta_object_name": "AQUA",
        "meta_object_id": "2002-022A",
        "meta_epoch": "2025-12-18T00:44:29.182848",
        "meta_mean_motion": 14.61821302,
        "meta_eccentricity": 0.00012878,
        "meta_inclination": 98.4043,
        "meta_ra_of_asc_node": 312.9961,
        "meta_arg_of_pericenter": 113.4651,
        "meta_mean_anomaly": 320.6588,
        "meta_ephemeris_type": 0,
        "meta_classification_type": "U",
        "meta_norad_cat_id": 27424,
        "meta_element_set_no": 999,
        "meta_rev_at_epoch": 25680,
        "meta_bstar": 0.00017905095,
        "meta_mean_motion_dot": 8.45e-06,
        "meta_mean_motion_ddot": 0,
        "tle_line1": "1 27424U 02022A   25352.03089332  .00000845  00000+0  17905-3 0  9991",
        "tle_line2": "2 27424  98.4043 312.9961 0001287 113.4651 320.6588 14.61821302256800"
      },
      "geometry": {
        "type": "Point",
        "coordinates": [
          -68.05965971522537,
          68.12918890196278
        ]
      }
    }
  ]
}